{
  "type": "FeatureCollection",
  "features": [
    {
      "type": "Feature",
      "properties": {
        "norad_id": 34589,
        "name": "COSMOS 2251 DEB",
        "group": "cosmos-2251-debris",
        "lat": 5.854631647347945,
        "lon": -134.59877442975815,
        "alt_km": 1128.2163582994417,
        "timestamp": "2025-12-17T23:38:07.248166+00:00",
        "meta_object_name": "COSMOS 2251 DEB",
        "meta_object_id": "1993-036WB",
        "meta_epoch": "2025-12-17T03:53:05.853120",
        "meta_mean_motion": 13.86056488,
        "meta_eccentricity": 0.02520625,
        "meta_inclination": 73.9259,
        "meta_ra_of_asc_node": 48.497,
        "meta_arg_of_pericenter": 350.9709,
        "meta_mean_anomaly": 38.3411,
        "meta_ephemeris_type": 0,
        "meta_classification_type": "U",
        "meta_norad_cat_id": 34589,
        "meta_element_set_no": 999,
        "meta_rev_at_epoch": 84773,
        "meta_bstar": 0.00026113807,
        "meta_mean_motion_dot": 3.61e-06,
        "meta_mean_motion_ddot": 0,
        "tle_line1": "1 34589U 93036WB  25351.16187330  .00000361  00000+0  26114-3 0  9991",
        "tle_line2": "2 34589  73.9259  48.4970 0252062 350.9709  38.3411 13.86056488847736"
      },
      "geometry": {
        "type": "Point",
        "coordinates": [
          -134.59877442975815,
          5.854631647347945
        ]
      }
    },
    {
      "type": "Feature",
      "properties": {
        "norad_id": 34590,
        "name": "COSMOS 2251 DEB",
        "group": "cosmos-2251-debris",
        "lat": 14.488603988419168,
        "lon": -43.13132795396462,
        "alt_km": 690.2291867058739,
        "timestamp": "2025-12-17T23:38:07.248177+00:00",
        "meta_object_name": "COSMOS 2251 DEB",
        "meta_object_id": "1993-036WC",
        "meta_epoch": "2025-12-17T03:49:48.319392",
        "meta_mean_motion": 14.54831057,
        "meta_eccentricity": 0.00679827,
        "meta_inclination": 74.044,
        "meta_ra_of_asc_node": 314.1893,
        "meta_arg_of_pericenter": 82.4697,
        "meta_mean_anomaly": 293.2035,
        "meta_ephemeris_type": 0,
        "meta_classification_type": "U",
        "meta_norad_cat_id": 34590,
        "meta_element_set_no": 999,
        "meta_rev_at_epoch": 89185,
        "meta_bstar": 0.00011939176,
        "meta_mean_motion_dot": 4.99e-06,
        "meta_mean_motion_ddot": 0,
        "tle_line1": "1 34590U 93036WC  25351.15958703  .00000499  00000+0  11939-3 0  9993",
        "tle_line2": "2 34590  74.0440 314.1893 0067982  82.4697 293.2035 14.54831057891852"
      },
      "geometry": {
        "type": "Point",
        "coordinates": [
          -43.13132795396462,
          14.488603988419168
        ]
      }
    },
    {
      "type": "Feature",
      "properties": {
        "norad_id": 34609,
        "name": "COSMOS 2251 DEB",
        "group": "cosmos-2251-debris",
        "lat": -57.01625823739311,
        "lon": -56.12775420298003,
        "alt_km": 797.3723634673061,
        "timestamp": "2025-12-17T23:38:07.248187+00:00",
        "meta_object_name": "COSMOS 2251 DEB",
        "meta_object_id": "1993-036WE",
        "meta_epoch": "2025-12-17T07:26:23.697600",
        "meta_mean_motion": 14.21809991,
        "meta_eccentricity": 0.0145358,
        "meta_inclination": 73.7333,
        "meta_ra_of_asc_node": 98.3689,
        "meta_arg_of_pericenter": 317.1482,
        "meta_mean_anomaly": 72.6187,
        "meta_ephemeris_type": 0,
        "meta_classification_type": "U",
        "meta_norad_cat_id": 34609,
        "meta_element_set_no": 999,
        "meta_rev_at_epoch": 86697,
        "meta_bstar": 0.00051138654,
        "meta_mean_motion_dot": 1.225e-05,
        "meta_mean_motion_ddot": 0,
        "tle_line1": "1 34609U 93036WE  25351.30999650  .00001225  00000+0  51139-3 0  9991",
        "tle_line2": "2 34609  73.7333  98.3689 0145358 317.1482  72.6187 14.21809991866976"
      },
      "geometry": {
        "type": "Point",
        "coordinates": [
          -56.12775420298003,
          -57.01625823739311
        ]
      }
    },
    {
      "type": "Feature",
      "properties": {
        "norad_id": 34610,
        "name": "COSMOS 2251 DEB",
        "group": "cosmos-2251-debris",
        "lat": 45.63489367869569,
        "lon": 56.08371528785631,
        "alt_km": 906.1999817958949,
        "timestamp": "2025-12-17T23:38:07.248197+00:00",
        "meta_object_name": "COSMOS 2251 DEB",
        "meta_object_id": "1993-036WF",
        "meta_epoch": "2025-12-16T19:43:22.866816",
        "meta_mean_motion": 14.07083274,
        "meta_eccentricity": 0.01805005,
        "meta_inclination": 74.0182,
        "meta_ra_of_asc_node": 255.1605,
        "meta_arg_of_pericenter": 24.866,
        "meta_mean_anomaly": 336.104,
        "meta_ephemeris_type": 0,
        "meta_classification_type": "U",
        "meta_norad_cat_id": 34610,
        "meta_element_set_no": 999,
        "meta_rev_at_epoch": 85617,
        "meta_bstar": 0.0012903668,
        "meta_mean_motion_dot": 2.479e-05,
        "meta_mean_motion_ddot": 0,
        "tle_line1": "1 34610U 93036WF  25350.82179244  .00002479  00000+0  12904-2 0  9996",
        "tle_line2": "2 34610  74.0182 255.1605 0180500  24.8660 336.1040 14.07083274856172"
      },
      "geometry": {
        "type": "Point",
        "coordinates": [
          56.08371528785631,
          45.63489367869569
        ]
      }
    },
    {
      "type": "Feature",
      "properties": {
        "norad_id": 34611,
        "name": "COSMOS 2251 DEB",
        "group": "cosmos-2251-debris",
        "lat": -69.19302271318287,
        "lon": 42.01506530825174,
        "alt_km": 683.1510194286593,
        "timestamp": "2025-12-17T23:38:07.248207+00:00",
        "meta_object_name": "COSMOS 2251 DEB",
        "meta_object_id": "1993-036WG",
        "meta_epoch": "2025-12-17T11:28:54.920352",
        "meta_mean_motion": 14.69593527,
        "meta_eccentricity": 0.00221549,
        "meta_inclination": 74.0539,
        "meta_ra_of_asc_node": 91.7942,
        "meta_arg_of_pericenter": 131.7139,
        "meta_mean_anomaly": 353.7495,
        "meta_ephemeris_type": 0,
        "meta_classification_type": "U",
        "meta_norad_cat_id": 34611,
        "meta_element_set_no": 999,
        "meta_rev_at_epoch": 88460,
        "meta_bstar": 0.0011555796,
        "meta_mean_motion_dot": 6.868e-05,
        "meta_mean_motion_ddot": 0,
        "tle_line1": "1 34611U 93036WG  25351.47841343  .00006868  00000+0  11556-2 0  9993",
        "tle_line2": "2 34611  74.0539  91.7942 0022154 131.7139 353.7495 14.69593527884609"
      },
      "geometry": {
        "type": "Point",
        "coordinates": [
          42.01506530825174,
          -69.19302271318287
        ]
      }
    },
    {
      "type": "Feature",
      "properties": {
        "norad_id": 34613,
        "name": "COSMOS 2251 DEB",
        "group": "cosmos-2251-debris",
        "lat": -72.45037795159291,
        "lon": -156.39919835803192,
        "alt_km": 889.638483169254,
        "timestamp": "2025-12-17T23:38:07.248220+00:00",
        "meta_object_name": "COSMOS 2251 DEB",
        "meta_object_id": "1993-036WJ",
        "meta_epoch": "2025-12-16T00:58:31.243296",
        "meta_mean_motion": 14.26454619,
        "meta_eccentricity": 0.01102473,
        "meta_inclination": 73.9638,
        "meta_ra_of_asc_node": 272.5587,
        "meta_arg_of_pericenter": 103.5153,
        "meta_mean_anomaly": 273.8209,
        "meta_ephemeris_type": 0,
        "meta_classification_type": "U",
        "meta_norad_cat_id": 34613,
        "meta_element_set_no": 999,
        "meta_rev_at_epoch": 86510,
        "meta_bstar": 0.00095440148,
        "meta_mean_motion_dot": 2.425e-05,
        "meta_mean_motion_ddot": 0,
        "tle_line1": "1 34613U 93036WJ  25350.04063939  .00002425  00000+0  95440-3 0  9994",
        "tle_line2": "2 34613  73.9638 272.5587 0110247 103.5153 273.8209 14.26454619865107"
      },
      "geometry": {
        "type": "Point",
        "coordinates": [
          -156.39919835803192,
          -72.45037795159291
        ]
      }
    },
    {
      "type": "Feature",
      "properties": {
        "norad_id": 34614,
        "name": "COSMOS 2251 DEB",
        "group": "cosmos-2251-debris",
        "lat": 25.055887910336498,
        "lon": -17.781075624012875,
        "alt_km": 756.0896123758857,
        "timestamp": "2025-12-17T23:38:07.248233+00:00",
        "meta_object_name": "COSMOS 2251 DEB",
        "meta_object_id": "1993-036WK",
        "meta_epoch": "2025-12-16T00:21:28.707840",
        "meta_mean_motion": 14.17601251,
        "meta_eccentricity": 0.0198196,
        "meta_inclination": 73.8837,
        "meta_ra_of_asc_node": 337.994,
        "meta_arg_of_pericenter": 331.3985,
        "meta_mean_anomaly": 83.6306,
        "meta_ephemeris_type": 0,
        "meta_classification_type": "U",
        "meta_norad_cat_id": 34614,
        "meta_element_set_no": 999,
        "meta_rev_at_epoch": 84813,
        "meta_bstar": 0.0047337499,
        "meta_mean_motion_dot": 0.00011666,
        "meta_mean_motion_ddot": 0,
        "tle_line1": "1 34614U 93036WK  25350.01491560  .00011666  00000+0  47337-2 0  9995",
        "tle_line2": "2 34614  73.8837 337.9940 0198196 331.3985  83.6306 14.17601251848135"
      },
      "geometry": {
        "type": "Point",
        "coordinates": [
          -17.781075624012875,
          25.055887910336498
        ]
      }
    }
  ]
}